CCSDS_OMM_VERS = 2.0
CREATION_DATE  = 
ORIGINATOR     = 

OBJECT_NAME    = IDEFIX & ARIANE 42P R/B
OBJECT_ID      = 2002-021B
CENTER_NAME    = EARTH
REF_FRAME      = TEME
TIME_SYSTEM    = UTC
MEAN_ELEMENT_THEORY = SGP/SGP4

EPOCH          = 2026-03-04T09:24:02.727072
MEAN_MOTION    = 14.31022003
ECCENTRICITY   = .0011273
INCLINATION    = 98.5866
RA_OF_ASC_NODE = 2.0614
ARG_OF_PERICENTER = 198.2764
MEAN_ANOMALY   = 161.8015

EPHEMERIS_TYPE = 0
CLASSIFICATION_TYPE = U
NORAD_CAT_ID   = 27422
ELEMENT_SET_NO = 999
REV_AT_EPOCH   = 24326
BSTAR          = .18028E-3
MEAN_MOTION_DOT = .431E-5
MEAN_MOTION_DDOT = 0

CCSDS_OMM_VERS = 2.0
CREATION_DATE  = 
ORIGINATOR     = 

OBJECT_NAME    = AQUA
OBJECT_ID      = 2002-022A
CENTER_NAME    = EARTH
REF_FRAME      = TEME
TIME_SYSTEM    = UTC
MEAN_ELEMENT_THEORY = SGP/SGP4

EPOCH          = 2026-03-04T11:48:55.961568
MEAN_MOTION    = 14.61962855
ECCENTRICITY   = .0000637
INCLINATION    = 98.4166
RA_OF_ASC_NODE = 30.7630
ARG_OF_PERICENTER = 60.6305
MEAN_ANOMALY   = 49.3779

EPHEMERIS_TYPE = 0
CLASSIFICATION_TYPE = U
NORAD_CAT_ID   = 27424
ELEMENT_SET_NO = 999
REV_AT_EPOCH   = 26797
BSTAR          = .32522E-3
MEAN_MOTION_DOT = .158E-4
MEAN_MOTION_DDOT = 0

CCSDS_OMM_VERS = 2.0
CREATION_DATE  = 
ORIGINATOR     = 

OBJECT_NAME    = CZ-4B R/B
OBJECT_ID      = 2002-024C
CENTER_NAME    = EARTH
REF_FRAME      = TEME
TIME_SYSTEM    = UTC
MEAN_ELEMENT_THEORY = SGP/SGP4

EPOCH          = 2026-03-04T02:59:00.994848
MEAN_MOTION    = 14.14546424
ECCENTRICITY   = .0050725
INCLINATION    = 98.8850
RA_OF_ASC_NODE = 116.5588
ARG_OF_PERICENTER = 39.8521
MEAN_ANOMALY   = 347.0460

EPHEMERIS_TYPE = 0
CLASSIFICATION_TYPE = U
NORAD_CAT_ID   = 27432
ELEMENT_SET_NO = 999
REV_AT_EPOCH   = 22845
BSTAR          = .5626E-4
MEAN_MOTION_DOT = .65E-6
MEAN_MOTION_DDOT = 0

CCSDS_OMM_VERS = 2.0
CREATION_DATE  = 
ORIGINATOR     = 

OBJECT_NAME    = MIDORI II (ADEOS-II)
OBJECT_ID      = 2002-056A
CENTER_NAME    = EARTH
REF_FRAME      = TEME
TIME_SYSTEM    = UTC
MEAN_ELEMENT_THEORY = SGP/SGP4

EPOCH          = 2026-03-04T11:36:00.334944
MEAN_MOTION    = 14.29280605
ECCENTRICITY   = .0001781
INCLINATION    = 98.7761
RA_OF_ASC_NODE = 21.9252
ARG_OF_PERICENTER = 50.0959
MEAN_ANOMALY   = 310.0379

EPHEMERIS_TYPE = 0
CLASSIFICATION_TYPE = U
NORAD_CAT_ID   = 27597
ELEMENT_SET_NO = 999
REV_AT_EPOCH   = 20955
BSTAR          = .19793E-3
MEAN_MOTION_DOT = .458E-5
MEAN_MOTION_DDOT = 0

CCSDS_OMM_VERS = 2.0
CREATION_DATE  = 
ORIGINATOR     = 

OBJECT_NAME    = H-2A R/B
OBJECT_ID      = 2002-056E
CENTER_NAME    = EARTH
REF_FRAME      = TEME
TIME_SYSTEM    = UTC
MEAN_ELEMENT_THEORY = SGP/SGP4

EPOCH          = 2026-03-04T11:35:38.922432
MEAN_MOTION    = 14.33756996
ECCENTRICITY   = .0070178
INCLINATION    = 98.3194
RA_OF_ASC_NODE = 24.0472
ARG_OF_PERICENTER = 176.1427
MEAN_ANOMALY   = 295.4587

EPHEMERIS_TYPE = 0
CLASSIFICATION_TYPE = U
NORAD_CAT_ID   = 27601
ELEMENT_SET_NO = 999
REV_AT_EPOCH   = 21336
BSTAR          = .1555E-3
MEAN_MOTION_DOT = .403E-5
MEAN_MOTION_DDOT = 0

CCSDS_OMM_VERS = 2.0
CREATION_DATE  = 
ORIGINATOR     = 

OBJECT_NAME    = CZ-4B R/B
OBJECT_ID      = 2003-049C
CENTER_NAME    = EARTH
REF_FRAME      = TEME
TIME_SYSTEM    = UTC
MEAN_ELEMENT_THEORY = SGP/SGP4

EPOCH          = 2026-03-04T12:01:25.989600
MEAN_MOTION    = 14.55014781
ECCENTRICITY   = .0047075
INCLINATION    = 98.6874
RA_OF_ASC_NODE = 58.2023
ARG_OF_PERICENTER = 247.0745
MEAN_ANOMALY   = 112.5479

EPHEMERIS_TYPE = 0
CLASSIFICATION_TYPE = U
NORAD_CAT_ID   = 28059
ELEMENT_SET_NO = 999
REV_AT_EPOCH   = 18584
BSTAR          = .15405E-3
MEAN_MOTION_DOT = .621E-5
MEAN_MOTION_DDOT = 0

CCSDS_OMM_VERS = 2.0
CREATION_DATE  = 
ORIGINATOR     = 

OBJECT_NAME    = CZ-2C R/B
OBJECT_ID      = 2004-012C
CENTER_NAME    = EARTH
REF_FRAME      = TEME
TIME_SYSTEM    = UTC
MEAN_ELEMENT_THEORY = SGP/SGP4

EPOCH          = 2026-03-04T04:06:31.902912
MEAN_MOTION    = 15.63762571
ECCENTRICITY   = .0013212
INCLINATION    = 97.7244
RA_OF_ASC_NODE = 127.9435
ARG_OF_PERICENTER = 331.6844
MEAN_ANOMALY   = 28.3694

EPHEMERIS_TYPE = 0
CLASSIFICATION_TYPE = U
NORAD_CAT_ID   = 28222
ELEMENT_SET_NO = 999
REV_AT_EPOCH   = 20341
BSTAR          = .75524E-3
MEAN_MOTION_DOT = .71201E-3
MEAN_MOTION_DDOT = 0

CCSDS_OMM_VERS = 2.0
CREATION_DATE  = 
ORIGINATOR     = 

OBJECT_NAME    = SL-16 R/B
OBJECT_ID      = 2004-021B
CENTER_NAME    = EARTH
REF_FRAME      = TEME
TIME_SYSTEM    = UTC
MEAN_ELEMENT_THEORY = SGP/SGP4

EPOCH          = 2026-03-04T12:10:16.602240
MEAN_MOTION    = 14.14599523
ECCENTRICITY   = .0003758
INCLINATION    = 70.9991
RA_OF_ASC_NODE = 243.3689
ARG_OF_PERICENTER = 19.6966
MEAN_ANOMALY   = 340.4301

EPHEMERIS_TYPE = 0
CLASSIFICATION_TYPE = U
NORAD_CAT_ID   = 28353
ELEMENT_SET_NO = 999
REV_AT_EPOCH   = 12210
BSTAR          = -.553E-4
MEAN_MOTION_DOT = -.154E-5
MEAN_MOTION_DDOT = 0

CCSDS_OMM_VERS = 2.0
CREATION_DATE  = 
ORIGINATOR     = 

OBJECT_NAME    = CZ-4B R/B
OBJECT_ID      = 2004-035C
CENTER_NAME    = EARTH
REF_FRAME      = TEME
TIME_SYSTEM    = UTC
MEAN_ELEMENT_THEORY = SGP/SGP4

EPOCH          = 2026-03-04T02:01:59.680992
MEAN_MOTION    = 15.28943125
ECCENTRICITY   = .0031572
INCLINATION    = 97.3503
RA_OF_ASC_NODE = 97.3943
ARG_OF_PERICENTER = 351.8851
MEAN_ANOMALY   = 8.1874

EPHEMERIS_TYPE = 0
CLASSIFICATION_TYPE = U
NORAD_CAT_ID   = 28415
ELEMENT_SET_NO = 999
REV_AT_EPOCH   = 17905
BSTAR          = .4141E-3
MEAN_MOTION_DOT = .11746E-3
MEAN_MOTION_DDOT = 0

CCSDS_OMM_VERS = 2.0
CREATION_DATE  = 
ORIGINATOR     = 

OBJECT_NAME    = CZ-2C R/B
OBJECT_ID      = 2004-046B
CENTER_NAME    = EARTH
REF_FRAME      = TEME
TIME_SYSTEM    = UTC
MEAN_ELEMENT_THEORY = SGP/SGP4

EPOCH          = 2026-03-04T08:48:19.070496
MEAN_MOTION    = 14.26990151
ECCENTRICITY   = .0139558
INCLINATION    = 98.1987
RA_OF_ASC_NODE = 338.6819
ARG_OF_PERICENTER = 170.1424
MEAN_ANOMALY   = 190.2547

EPHEMERIS_TYPE = 0
CLASSIFICATION_TYPE = U
NORAD_CAT_ID   = 28480
ELEMENT_SET_NO = 999
REV_AT_EPOCH   = 10774
BSTAR          = .79149E-4
MEAN_MOTION_DOT = .173E-5
MEAN_MOTION_DDOT = 0

CCSDS_OMM_VERS = 2.0
CREATION_DATE  = 
ORIGINATOR     = 

OBJECT_NAME    = ARIANE 5 R/B
OBJECT_ID      = 2004-049H
CENTER_NAME    = EARTH
REF_FRAME      = TEME
TIME_SYSTEM    = UTC
MEAN_ELEMENT_THEORY = SGP/SGP4

EPOCH          = 2026-03-04T10:41:13.596000
MEAN_MOTION    = 14.85255228
ECCENTRICITY   = .0084316
INCLINATION    = 98.2617
RA_OF_ASC_NODE = 231.7063
ARG_OF_PERICENTER = 8.9273
MEAN_ANOMALY   = 351.3417

EPHEMERIS_TYPE = 0
CLASSIFICATION_TYPE = U
NORAD_CAT_ID   = 28499
ELEMENT_SET_NO = 999
REV_AT_EPOCH   = 14501
BSTAR          = .13803E-3
MEAN_MOTION_DOT = .1197E-4
MEAN_MOTION_DDOT = 0

CCSDS_OMM_VERS = 2.0
CREATION_DATE  = 
ORIGINATOR     = 

OBJECT_NAME    = CZ-2D R/B
OBJECT_ID      = 2005-024B
CENTER_NAME    = EARTH
REF_FRAME      = TEME
TIME_SYSTEM    = UTC
MEAN_ELEMENT_THEORY = SGP/SGP4

EPOCH          = 2026-03-03T23:59:53.239200
MEAN_MOTION    = 15.59546967
ECCENTRICITY   = .0006724
INCLINATION    = 97.3594
RA_OF_ASC_NODE = 77.9392
ARG_OF_PERICENTER = 61.1543
MEAN_ANOMALY   = 299.0388

EPHEMERIS_TYPE = 0
CLASSIFICATION_TYPE = U
NORAD_CAT_ID   = 28738
ELEMENT_SET_NO = 999
REV_AT_EPOCH   = 13889
BSTAR          = .7072E-3
MEAN_MOTION_DOT = .5639E-3
MEAN_MOTION_DDOT = 0

